IRIDIUM 26              
1 24903U 97043A   25322.68069914  .00000591  00000+0  19186-3 0  9990
2 24903  86.3979  45.6716 0001941  92.8433 267.2987 14.37300833478939
IRIDIUM 22              
1 24907U 97043E   25322.66920084  .00000522  00000+0  17272-3 0  9994
2 24907  86.3981  49.3488 0002052  97.4345 262.7085 14.36097488478948
DUMMY MASS 1            
1 24925U 97048A   25322.71711782  .00000646  00000+0  68730-4 0  9991
2 24925  86.3353  63.8204 0005347 337.6352  22.4639 14.87151829528099
DUMMY MASS 2            
1 24926U 97048B   25322.70506948  .00000636  00000+0  68125-4 0  9994
2 24926  86.3351  65.4625 0006549 348.8052  11.3026 14.86902430527861
IRIDIUM 29              
1 24944U 97051A   25322.77562014  .00000681  00000+0  22504-3 0  9991
2 24944  86.3946  79.0041 0002189  97.4625 262.6821 14.36631435475464
IRIDIUM 33              
1 24946U 97051C   25322.78933438  .00000502  00000+0  16953-3 0  9999
2 24946  86.3862  78.2734 0005982 300.3750  59.6855 14.35012309474914
IRIDIUM 28              
1 24948U 97051E   25322.79083630  .00000607  00000+0  19602-3 0  9992
2 24948  86.3954  76.4243 0001575  86.5856 273.5522 14.37532688476051
IRIDIUM 36              
1 24967U 97056C   25322.45161204  .00000675  00000+0  21803-3 0  9996
2 24967  86.3939 108.1979 0001796  94.1712 265.9691 14.37752604474383
